COSMOS 2251 DEB         
1 36553U 93036BDP 17345.29950322  .00001302  00000-0  19810-3 0  9993
2 36553  74.0458 331.9832 0049828 116.8240 304.4755 14.74254575443423
